365P/PANSTARRS,e,9.8366,87.4080,66.2174,3.179520,0.1738448,0.57520146,157.6376,08/06.0/2020,2000,g 17.0,4.0
# From MPC114610
366P/Spacewatch,e,8.8595,70.7538,153.1701,3.495579,0.1508083,0.34851825,112.6333,08/06.0/2020,2000,g 15.0,4.0
# From MPC112395
367P/Catalina,e,8.4636,58.7159,172.9268,3.505172,0.1501897,0.28056021,116.6420,08/06.0/2020,2000,g 17.5,2.0
# From MPC114610
368P/NEAT,e,15.4834,257.9683,118.7754,5.526501,0.0758628,0.62613779,52.4701,08/06.0/2020,2000,g 14.0,4.0
# From MPC114610
369P/Hill,e,10.3102,47.3052,13.2142,4.386157,0.1072946,0.55415870,70.9182,08/06.0/2020,2000,g 15.0,4.0
# From MPC114610
370P/NEAT,e,19.3993,55.1405,356.7022,6.437012,0.0603501,0.61433703,47.5945,08/06.0/2020,2000,g 13.0,4.0
# From MPC114610
371P/LINEAR-Skiff,e,17.3776,67.3232,308.4500,4.181390,0.1152718,0.47635734,77.3857,08/06.0/2020,2000,g 16.0,4.0
# From MPEC 2020-N31
372P/McNaught,e,9.5097,325.8196,27.1417,4.502448,0.1031647,0.15255191,67.5939,08/06.0/2020,2000,g 13.5,4.0
# From MPC114610
373P/Rinner,e,13.7587,231.9505,221.1522,3.805144,0.1327845,0.39217663,64.4100,08/06.0/2020,2000,g 14.5,4.0
# From MPC114610
374P/Larson,e,10.7603,7.9153,51.5373,4.975280,0.0888133,0.46229769,50.9190,08/06.0/2020,2000,g 14.0,4.0
# From MPC114610
375P/Hill,e,17.3618,359.9481,119.4733,5.559657,0.0751852,0.65884746,44.6373,08/06.0/2020,2000,g 16.0,4.0
# From MPEC 2020-N31
376P/LONEOS,e,1.1937,314.8328,285.2889,5.871465,0.0692762,0.51833519,21.6336,08/06.0/2020,2000,g 12.5,4.0
# From MPEC 2020-N31
377P/Scotti,e,9.0223,226.0589,354.9640,6.713079,0.0566659,0.25268521,1.4605,08/06.0/2020,2000,g  9.5,4.0
# From MPEC 2019-TG9
378P/McNaught,e,19.1053,94.5175,194.1115,6.372807,0.0612644,0.46950312,355.3292,08/06.0/2020,2000,g 12.0,4.0
# From MPC115889
379P/Spacewatch,e,12.3897,183.9242,31.2518,3.528365,0.1487112,0.33905686,55.0893,08/06.0/2020,2000,g 15.0,4.0
# From MPEC 2020-KB7
380P/PANSTARRS,e,8.2580,132.9834,89.9990,4.545414,0.1017054,0.33017828,43.3633,08/06.0/2020,2000,g 12.5,4.0
# From MPEC 2019-TG9
381P/LINEAR-Spacewatch,e,28.3752,173.7855,173.1176,7.116803,0.0519131,0.68165294,16.3039,08/06.0/2020,2000,g 17.5,2.0
# From MPC115889
382P/Larson,e,7.6806,177.1769,174.2413,6.236189,0.0632885,0.29881338,320.9937,08/06.0/2020,2000,g  8.0,4.0
# From MPC118844
383P/Christensen,e,12.3214,207.8924,133.6356,3.544022,0.1477268,0.59952568,42.0678,08/06.0/2020,2000,g 18.0,4.0
# From MPEC 2020-C98
384P/Kowalski,e,7.2820,354.2265,37.6396,2.901543,0.1994162,0.61534861,59.7410,08/06.0/2020,2000,g 19.5,4.0
# From MPEC 2020-C98
385P/Hill,e,16.8267,357.0696,44.3288,4.287946,0.1110018,0.40125699,36.2111,08/06.0/2020,2000,g 13.0,4.0
# From MPEC 2020-C98
386P/PANSTARRS,e,15.2294,134.9478,353.2600,4.058326,0.1205546,0.41644163,358.3856,08/06.0/2020,2000,g 14.5,4.0
# From MPEC 2020-C98
387P/Boattini,e,8.9171,259.3362,162.7861,4.800526,0.0937067,0.73597505,31.3761,08/06.0/2020,2000,g 15.0,4.0
# From MPEC 2020-HN5
388P/Gibbs,e,23.8606,37.0491,42.3986,5.246831,0.0820084,0.61795646,31.1167,08/06.0/2020,2000,g 13.0,4.0
# From MPC118845
389P/Siding Spring,e,160.0655,218.8499,249.2891,5.627309,0.0738334,0.70445749,16.2986,08/06.0/2020,2000,g 16.0,4.0
# From MPEC 2020-C98
390P/Gibbs,e,18.5592,152.2785,232.3416,5.799649,0.0705670,0.70691571,9.6511,08/06.0/2020,2000,g 12.0,4.0
# From MPEC 2020-AA5
391P/Kowalski,e,21.2762,124.7299,186.7066,4.676180,0.0974692,0.12083189,84.8852,08/06.0/2020,2000,g  8.0,4.0
# From MPEC 2020-HN5
392P/LINEAR,e,4.9294,24.8845,71.9913,6.149422,0.0646328,0.68286760,8.2193,08/06.0/2020,2000,g 14.5,4.0
# From MPC118845
393P/Spacewatch-Hill,e,16.7953,36.4215,328.0289,4.783784,0.0941991,0.12021487,27.0409,08/06.0/2020,2000,g 11.0,4.0
# From MPEC 2020-KB7
394P/PANSTARRS,e,8.5295,98.1254,54.5170,4.333100,0.1092713,0.36813347,27.2739,08/06.0/2020,2000,g 16.0,2.4
# From MPEC 2020-N31
395P/Catalina-NEAT,e,3.2801,223.8058,89.8427,6.523578,0.0591528,0.37695897,329.6725,08/06.0/2020,2000,g 10.0,4.0
# From MPEC 2020-KB7
396P/,e,5.4362,136.6605,8.6647,6.824586,0.0552827,0.41637940,18.9588,08/06.0/2020,2000,g 12.0,4.0
# From MPC107687
1I/`Oumuamua,h,09/09.4886/2017,122.6778,24.5997,241.6845,1.199252,0.255240,2000,23.0,2.0
# From MPEC 2020-L06
2I/Borisov,h,12/08.5549/2019,44.0527,308.1481,209.1251,3.356649,2.006550,2000,11.0,4.0
